[{"OBJECT_NAME":"O3B FM10","OBJECT_ID":"2014-083A","EPOCH":"2026-03-05T19:34:52.133952","MEAN_MOTION":5.00115238,"ECCENTRICITY":0.00026847,"INCLINATION":0.0432,"RA_OF_ASC_NODE":347.4987,"ARG_OF_PERICENTER":355.649,"MEAN_ANOMALY":16.8377,"EPHEMERIS_TYPE":0,"CLASSIFICATION_TYPE":"U","NORAD_CAT_ID":40348,"ELEMENT_SET_NO":999,"REV_AT_EPOCH":20472,"BSTAR":0,"MEAN_MOTION_DOT":-2.6e-7,"MEAN_MOTION_DDOT":0},{"OBJECT_NAME":"O3B FM11","OBJECT_ID":"2014-083B","EPOCH":"2026-03-06T00:41:01.833216","MEAN_MOTION":5.00115617,"ECCENTRICITY":0.00031291,"INCLINATION":0.0567,"RA_OF_ASC_NODE":0.458,"ARG_OF_PERICENTER":333.2733,"MEAN_ANOMALY":26.2473,"EPHEMERIS_TYPE":0,"CLASSIFICATION_TYPE":"U","NORAD_CAT_ID":40349,"ELEMENT_SET_NO":999,"REV_AT_EPOCH":20475,"BSTAR":0,"MEAN_MOTION_DOT":-2.6e-7,"MEAN_MOTION_DDOT":0},{"OBJECT_NAME":"O3B FM12","OBJECT_ID":"2014-083C","EPOCH":"2026-03-03T10:58:05.766816","MEAN_MOTION":5.00115945,"ECCENTRICITY":0.00026432,"INCLINATION":0.056,"RA_OF_ASC_NODE":359.7796,"ARG_OF_PERICENTER":337.6957,"MEAN_ANOMALY":22.5061,"EPHEMERIS_TYPE":0,"CLASSIFICATION_TYPE":"U","NORAD_CAT_ID":40350,"ELEMENT_SET_NO":999,"REV_AT_EPOCH":20463,"BSTAR":0,"MEAN_MOTION_DOT":-2.8e-7,"MEAN_MOTION_DDOT":0},{"OBJECT_NAME":"O3B FM9","OBJECT_ID":"2014-083D","EPOCH":"2026-03-06T01:58:40.864224","MEAN_MOTION":5.00115916,"ECCENTRICITY":0.00027329,"INCLINATION":0.0579,"RA_OF_ASC_NODE":0.7211,"ARG_OF_PERICENTER":342.9273,"MEAN_ANOMALY":16.3373,"EPHEMERIS_TYPE":0,"CLASSIFICATION_TYPE":"U","NORAD_CAT_ID":40351,"ELEMENT_SET_NO":999,"REV_AT_EPOCH":20491,"BSTAR":0,"MEAN_MOTION_DOT":-2.6e-7,"MEAN_MOTION_DDOT":0},{"OBJECT_NAME":"ASTRA 2G","OBJECT_ID":"2014-089A","EPOCH":"2026-03-06T03:49:25.960800","MEAN_MOTION":1.00273178,"ECCENTRICITY":0.00044868,"INCLINATION":0.0605,"RA_OF_ASC_NODE":343.9894,"ARG_OF_PERICENTER":47.1303,"MEAN_ANOMALY":218.2864,"EPHEMERIS_TYPE":0,"CLASSIFICATION_TYPE":"U","NORAD_CAT_ID":40364,"ELEMENT_SET_NO":999,"REV_AT_EPOCH":4093,"BSTAR":0,"MEAN_MOTION_DOT":1.44e-6,"MEAN_MOTION_DDOT":0},{"OBJECT_NAME":"SES-9","OBJECT_ID":"2016-013A","EPOCH":"2026-03-04T07:55:14.711232","MEAN_MOTION":1.00271983,"ECCENTRICITY":0.00015147,"INCLINATION":0.0427,"RA_OF_ASC_NODE":307.7822,"ARG_OF_PERICENTER":86.5529,"MEAN_ANOMALY":354.8377,"EPHEMERIS_TYPE":0,"CLASSIFICATION_TYPE":"U","NORAD_CAT_ID":41380,"ELEMENT_SET_NO":999,"REV_AT_EPOCH":3638,"BSTAR":0,"MEAN_MOTION_DOT":-3.57e-6,"MEAN_MOTION_DDOT":0},{"OBJECT_NAME":"SES-10","OBJECT_ID":"2017-017A","EPOCH":"2026-03-04T08:09:38.820096","MEAN_MOTION":1.00269378,"ECCENTRICITY":0.00026994,"INCLINATION":0.0212,"RA_OF_ASC_NODE":73.6872,"ARG_OF_PERICENTER":276.147,"MEAN_ANOMALY":227.7463,"EPHEMERIS_TYPE":0,"CLASSIFICATION_TYPE":"U","NORAD_CAT_ID":42432,"ELEMENT_SET_NO":999,"REV_AT_EPOCH":3270,"BSTAR":0,"MEAN_MOTION_DOT":-2.84e-6,"MEAN_MOTION_DDOT":0},{"OBJECT_NAME":"SES-15","OBJECT_ID":"2017-026A","EPOCH":"2026-03-05T00:25:38.690688","MEAN_MOTION":1.0027106,"ECCENTRICITY":7.138e-5,"INCLINATION":0.0426,"RA_OF_ASC_NODE":307.9199,"ARG_OF_PERICENTER":39.5952,"MEAN_ANOMALY":52.4724,"EPHEMERIS_TYPE":0,"CLASSIFICATION_TYPE":"U","NORAD_CAT_ID":42709,"ELEMENT_SET_NO":999,"REV_AT_EPOCH":638,"BSTAR":0,"MEAN_MOTION_DOT":5.0e-7,"MEAN_MOTION_DDOT":0},{"OBJECT_NAME":"SES-11 (ECHOSTAR 105)","OBJECT_ID":"2017-063A","EPOCH":"2026-03-05T04:56:24.893952","MEAN_MOTION":1.00272288,"ECCENTRICITY":0.0002895,"INCLINATION":0.0386,"RA_OF_ASC_NODE":71.4662,"ARG_OF_PERICENTER":270.8534,"MEAN_ANOMALY":149.7752,"EPHEMERIS_TYPE":0,"CLASSIFICATION_TYPE":"U","NORAD_CAT_ID":42967,"ELEMENT_SET_NO":999,"REV_AT_EPOCH":3068,"BSTAR":0,"MEAN_MOTION_DOT":-9.8e-7,"MEAN_MOTION_DDOT":0},{"OBJECT_NAME":"SES-14","OBJECT_ID":"2018-012B","EPOCH":"2026-03-05T20:37:02.432352","MEAN_MOTION":1.00271895,"ECCENTRICITY":9.413e-5,"INCLINATION":0.0147,"RA_OF_ASC_NODE":70.1946,"ARG_OF_PERICENTER":282.6586,"MEAN_ANOMALY":72.4822,"EPHEMERIS_TYPE":0,"CLASSIFICATION_TYPE":"U","NORAD_CAT_ID":43175,"ELEMENT_SET_NO":999,"REV_AT_EPOCH":598,"BSTAR":0,"MEAN_MOTION_DOT":-2.85e-6,"MEAN_MOTION_DDOT":0},{"OBJECT_NAME":"O3B FM15","OBJECT_ID":"2018-024A","EPOCH":"2026-03-05T22:46:58.655136","MEAN_MOTION":5.00115727,"ECCENTRICITY":0.00026889,"INCLINATION":0.0486,"RA_OF_ASC_NODE":0.9069,"ARG_OF_PERICENTER":340.0136,"MEAN_ANOMALY":19.0639,"EPHEMERIS_TYPE":0,"CLASSIFICATION_TYPE":"U","NORAD_CAT_ID":43231,"ELEMENT_SET_NO":999,"REV_AT_EPOCH":14586,"BSTAR":0,"MEAN_MOTION_DOT":-2.6e-7,"MEAN_MOTION_DDOT":0},{"OBJECT_NAME":"O3B FM16","OBJECT_ID":"2018-024B","EPOCH":"2026-03-06T04:50:14.394336","MEAN_MOTION":5.00115882,"ECCENTRICITY":0.00028278,"INCLINATION":0.045,"RA_OF_ASC_NODE":2.8168,"ARG_OF_PERICENTER":339.2721,"MEAN_ANOMALY":17.8957,"EPHEMERIS_TYPE":0,"CLASSIFICATION_TYPE":"U","NORAD_CAT_ID":43232,"ELEMENT_SET_NO":999,"REV_AT_EPOCH":14579,"BSTAR":0,"MEAN_MOTION_DOT":-2.6e-7,"MEAN_MOTION_DDOT":0},{"OBJECT_NAME":"O3B FM14","OBJECT_ID":"2018-024C","EPOCH":"2026-03-06T01:01:04.982592","MEAN_MOTION":5.00115671,"ECCENTRICITY":0.0002846,"INCLINATION":0.0435,"RA_OF_ASC_NODE":1.7188,"ARG_OF_PERICENTER":343.7951,"MEAN_ANOMALY":14.4724,"EPHEMERIS_TYPE":0,"CLASSIFICATION_TYPE":"U","NORAD_CAT_ID":43233,"ELEMENT_SET_NO":999,"REV_AT_EPOCH":14578,"BSTAR":0,"MEAN_MOTION_DOT":-2.6e-7,"MEAN_MOTION_DDOT":0},{"OBJECT_NAME":"O3B FM13","OBJECT_ID":"2018-024D","EPOCH":"2026-03-03T02:38:16.342368","MEAN_MOTION":5.00115687,"ECCENTRICITY":0.00042952,"INCLINATION":0.0485,"RA_OF_ASC_NODE":331.6373,"ARG_OF_PERICENTER":331.6147,"MEAN_ANOMALY":56.6997,"EPHEMERIS_TYPE":0,"CLASSIFICATION_TYPE":"U","NORAD_CAT_ID":43234,"ELEMENT_SET_NO":999,"REV_AT_EPOCH":14574,"BSTAR":0,"MEAN_MOTION_DOT":-2.8e-7,"MEAN_MOTION_DDOT":0},{"OBJECT_NAME":"SES-12","OBJECT_ID":"2018-049A","EPOCH":"2026-03-05T21:17:43.531296","MEAN_MOTION":1.0026855,"ECCENTRICITY":0.00019077,"INCLINATION":0.0149,"RA_OF_ASC_NODE":123.537,"ARG_OF_PERICENTER":181.2223,"MEAN_ANOMALY":273.302,"EPHEMERIS_TYPE":0,"CLASSIFICATION_TYPE":"U","NORAD_CAT_ID":43488,"ELEMENT_SET_NO":999,"REV_AT_EPOCH":2838,"BSTAR":0,"MEAN_MOTION_DOT":0,"MEAN_MOTION_DDOT":0},{"OBJECT_NAME":"O3B FM20","OBJECT_ID":"2019-020A","EPOCH":"2026-03-06T01:38:33.245376","MEAN_MOTION":5.00115498,"ECCENTRICITY":0.0002801,"INCLINATION":0.0518,"RA_OF_ASC_NODE":359.6891,"ARG_OF_PERICENTER":333.4783,"MEAN_ANOMALY":26.8126,"EPHEMERIS_TYPE":0,"CLASSIFICATION_TYPE":"U","NORAD_CAT_ID":44112,"ELEMENT_SET_NO":999,"REV_AT_EPOCH":12641,"BSTAR":0,"MEAN_MOTION_DOT":-2.6e-7,"MEAN_MOTION_DDOT":0},{"OBJECT_NAME":"O3B FM19","OBJECT_ID":"2019-020B","EPOCH":"2026-02-27T21:34:30.034272","MEAN_MOTION":5.00116325,"ECCENTRICITY":0.0004795,"INCLINATION":0.0602,"RA_OF_ASC_NODE":347.5601,"ARG_OF_PERICENTER":353.9797,"MEAN_ANOMALY":18.4356,"EPHEMERIS_TYPE":0,"CLASSIFICATION_TYPE":"U","NORAD_CAT_ID":44113,"ELEMENT_SET_NO":999,"REV_AT_EPOCH":12597,"BSTAR":0,"MEAN_MOTION_DOT":-2.7e-7,"MEAN_MOTION_DDOT":0}]
